{
  "type": "FeatureCollection",
  "attribution": "\u00a9 OpenStreetMap contributors, ODbL \u2014 https://www.openstreetmap.org/copyright",
  "features": [
    {
      "type": "Feature",
      "properties": {
        "osm_id": 825753849,
        "name": "Unnamed building 825753849",
        "building_type": "yes",
        "amenity": null,
        "levels": 1,
        "footprint_m2": 374.8,
        "gross_floor_area_m2": 374.8
      },
      "geometry": {
        "type": "Polygon",
        "coordinates": [
          [
            [
              85.8067432,
              20.2444763
            ],
            [
              85.8068599,
              20.2444774
            ],
            [
              85.8068595,
              20.2445074
            ],
            [
              85.8069145,
              20.2445079
            ],
            [
              85.806915,
              20.2444651
            ],
            [
              85.8070179,
              20.244466
            ],
            [
              85.8070194,
              20.2443267
            ],
            [
              85.8069653,
              20.2443262
            ],
            [
              85.8069649,
              20.2443623
            ],
            [
              85.8068336,
              20.2443611
            ],
            [
              85.8068334,
              20.2443817
            ],
            [
              85.8067443,
              20.2443808
            ],
            [
              85.8067432,
              20.2444763
            ]
          ]
        ]
      }
    },
    {
      "type": "Feature",
      "properties": {
        "osm_id": 1043463346,
        "name": "A-Block",
        "building_type": "college",
        "amenity": null,
        "levels": 1,
        "footprint_m2": 703.3,
        "gross_floor_area_m2": 703.3
      },
      "geometry": {
        "type": "Polygon",
        "coordinates": [
          [
            [
              85.800161,
              20.2499341
            ],
            [
              85.8002255,
              20.249649
            ],
            [
              85.8004291,
              20.2496794
            ],
            [
              85.8003644,
              20.2499693
            ],
            [
              85.800161,
              20.2499341
            ]
          ]
        ]
      }
    },
    {
      "type": "Feature",
      "properties": {
        "osm_id": 1043463347,
        "name": "ITER Boys Hostel 2",
        "building_type": "dormitory",
        "amenity": null,
        "levels": 1,
        "footprint_m2": 1056.5,
        "gross_floor_area_m2": 1056.5
      },
      "geometry": {
        "type": "Polygon",
        "coordinates": [
          [
            [
              85.8006203,
              20.2504352
            ],
            [
              85.8006222,
              20.2502025
            ],
            [
              85.8010182,
              20.2502067
            ],
            [
              85.8010124,
              20.2504362
            ],
            [
              85.8006203,
              20.2504352
            ]
          ]
        ]
      }
    },
    {
      "type": "Feature",
      "properties": {
        "osm_id": 1043463348,
        "name": "ITER Boys Hostel 1",
        "building_type": "dormitory",
        "amenity": null,
        "levels": 1,
        "footprint_m2": 1349.7,
        "gross_floor_area_m2": 1349.7
      },
      "geometry": {
        "type": "Polygon",
        "coordinates": [
          [
            [
              85.8006265,
              20.2501376
            ],
            [
              85.8006342,
              20.2498323
            ],
            [
              85.8009786,
              20.2498282
            ],
            [
              85.80098,
              20.2499144
            ],
            [
              85.8010373,
              20.2499146
            ],
            [
              85.8010346,
              20.2500517
            ],
            [
              85.8009853,
              20.2500514
            ],
            [
              85.8009824,
              20.2501429
            ],
            [
              85.8006265,
              20.2501376
            ]
          ]
        ]
      }
    },
    {
      "type": "Feature",
      "properties": {
        "osm_id": 1043463349,
        "name": "ITER Administrative Block",
        "building_type": "college",
        "amenity": null,
        "levels": 3,
        "footprint_m2": 2337.1,
        "gross_floor_area_m2": 7011.4
      },
      "geometry": {
        "type": "Polygon",
        "coordinates": [
          [
            [
              85.8006608,
              20.2497633
            ],
            [
              85.8008194,
              20.2495301
            ],
            [
              85.8008774,
              20.2495407
            ],
            [
              85.8008725,
              20.2494249
            ],
            [
              85.8008596,
              20.2493366
            ],
            [
              85.8007676,
              20.2492184
            ],
            [
              85.8007038,
              20.2492879
            ],
            [
              85.8005145,
              20.2491798
            ],
            [
              85.8003282,
              20.2494764
            ],
            [
              85.8003421,
              20.2495311
            ],
            [
              85.8003615,
              20.2495959
            ],
            [
              85.8005031,
              20.2496809
            ],
            [
              85.8006608,
              20.2497633
            ]
          ]
        ]
      }
    },
    {
      "type": "Feature",
      "properties": {
        "osm_id": 1043464921,
        "name": "C-block",
        "building_type": "college",
        "amenity": null,
        "levels": 3,
        "footprint_m2": 2722.8,
        "gross_floor_area_m2": 8168.4
      },
      "geometry": {
        "type": "Polygon",
        "coordinates": [
          [
            [
              85.800732,
              20.2490547
            ],
            [
              85.8006595,
              20.2487494
            ],
            [
              85.8008049,
              20.248719
            ],
            [
              85.8008215,
              20.2487477
            ],
            [
              85.8009605,
              20.2487182
            ],
            [
              85.8009677,
              20.2487481
            ],
            [
              85.8010224,
              20.2487365
            ],
            [
              85.8010092,
              20.2486819
            ],
            [
              85.8011097,
              20.2486605
            ],
            [
              85.8011201,
              20.2487033
            ],
            [
              85.8011739,
              20.2486919
            ],
            [
              85.8011618,
              20.2486418
            ],
            [
              85.801273,
              20.248618
            ],
            [
              85.801286,
              20.2486714
            ],
            [
              85.8013193,
              20.2486642
            ],
            [
              85.8013121,
              20.2486347
            ],
            [
              85.8014602,
              20.2486029
            ],
            [
              85.8014509,
              20.2485648
            ],
            [
              85.8015902,
              20.2485348
            ],
            [
              85.8016674,
              20.2488502
            ],
            [
              85.801532,
              20.2488794
            ],
            [
              85.8015233,
              20.2488439
            ],
            [
              85.8013722,
              20.2488765
            ],
            [
              85.801357,
              20.2488145
            ],
            [
              85.8010005,
              20.2488915
            ],
            [
              85.8010161,
              20.2489554
            ],
            [
              85.8008802,
              20.2489848
            ],
            [
              85.8008777,
              20.2490243
            ],
            [
              85.800732,
              20.2490547
            ]
          ]
        ]
      }
    },
    {
      "type": "Feature",
      "properties": {
        "osm_id": 1043464922,
        "name": "Bansuri Guru Auditorium",
        "building_type": "college",
        "amenity": "conference_centre",
        "levels": 4,
        "footprint_m2": 1175.2,
        "gross_floor_area_m2": 4700.6
      },
      "geometry": {
        "type": "Polygon",
        "coordinates": [
          [
            [
              85.8018007,
              20.2494856
            ],
            [
              85.8018033,
              20.2493384
            ],
            [
              85.8017828,
              20.2493
            ],
            [
              85.8017478,
              20.2492257
            ],
            [
              85.8016359,
              20.2488724
            ],
            [
              85.8014509,
              20.2489179
            ],
            [
              85.8014898,
              20.2490431
            ],
            [
              85.8015347,
              20.2490318
            ],
            [
              85.8016174,
              20.2492841
            ],
            [
              85.8016377,
              20.2493324
            ],
            [
              85.8016231,
              20.2493311
            ],
            [
              85.8016214,
              20.2493952
            ],
            [
              85.8016386,
              20.2493957
            ],
            [
              85.8016414,
              20.249512
            ],
            [
              85.8017203,
              20.2495054
            ],
            [
              85.8017178,
              20.2494871
            ],
            [
              85.8018007,
              20.2494856
            ]
          ]
        ]
      }
    },
    {
      "type": "Feature",
      "properties": {
        "osm_id": 1043464923,
        "name": "ITER Cafeteria",
        "building_type": "college",
        "amenity": "fast_food",
        "levels": 1,
        "footprint_m2": 929.2,
        "gross_floor_area_m2": 929.2
      },
      "geometry": {
        "type": "Polygon",
        "coordinates": [
          [
            [
              85.8021384,
              20.2481475
            ],
            [
              85.8026187,
              20.2483324
            ],
            [
              85.8026726,
              20.2481887
            ],
            [
              85.8021934,
              20.2479997
            ],
            [
              85.8021384,
              20.2481475
            ]
          ]
        ]
      }
    },
    {
      "type": "Feature",
      "properties": {
        "osm_id": 1126221949,
        "name": "Unnamed building 1126221949",
        "building_type": "yes",
        "amenity": null,
        "levels": 1,
        "footprint_m2": 107.6,
        "gross_floor_area_m2": 107.6
      },
      "geometry": {
        "type": "Polygon",
        "coordinates": [
          [
            [
              85.8007498,
              20.2456743
            ],
            [
              85.8008337,
              20.2456908
            ],
            [
              85.8008574,
              20.2455849
            ],
            [
              85.8007735,
              20.2455684
            ],
            [
              85.8007498,
              20.2456743
            ]
          ]
        ]
      }
    },
    {
      "type": "Feature",
      "properties": {
        "osm_id": 1327180010,
        "name": "D-block",
        "building_type": "yes",
        "amenity": null,
        "levels": 4,
        "footprint_m2": 1539.0,
        "gross_floor_area_m2": 6156.0
      },
      "geometry": {
        "type": "Polygon",
        "coordinates": [
          [
            [
              85.8005471,
              20.2485635
            ],
            [
              85.8008958,
              20.2485685
            ],
            [
              85.8009039,
              20.2484628
            ],
            [
              85.8008207,
              20.2484653
            ],
            [
              85.8008127,
              20.2484326
            ],
            [
              85.8008797,
              20.2484225
            ],
            [
              85.800877,
              20.2483747
            ],
            [
              85.8007617,
              20.2483722
            ],
            [
              85.8007644,
              20.2483445
            ],
            [
              85.8008743,
              20.2483445
            ],
            [
              85.8008743,
              20.2482615
            ],
            [
              85.8008234,
              20.248264
            ],
            [
              85.8008234,
              20.2482414
            ],
            [
              85.8008717,
              20.2482388
            ],
            [
              85.800877,
              20.2481784
            ],
            [
              85.8008153,
              20.2481784
            ],
            [
              85.8007697,
              20.2481784
            ],
            [
              85.8007644,
              20.2482187
            ],
            [
              85.800708,
              20.2482212
            ],
            [
              85.8007054,
              20.2481457
            ],
            [
              85.8005122,
              20.2481482
            ],
            [
              85.8005149,
              20.2482841
            ],
            [
              85.8005149,
              20.2483496
            ],
            [
              85.8005444,
              20.2483496
            ],
            [
              85.8005471,
              20.2485635
            ]
          ]
        ]
      }
    },
    {
      "type": "Feature",
      "properties": {
        "osm_id": 1327180956,
        "name": "Central Library",
        "building_type": "yes",
        "amenity": null,
        "levels": 5,
        "footprint_m2": 1810.5,
        "gross_floor_area_m2": 9052.6
      },
      "geometry": {
        "type": "Polygon",
        "coordinates": [
          [
            [
              85.8000722,
              20.2484406
            ],
            [
              85.8003216,
              20.2485655
            ],
            [
              85.8004102,
              20.2484195
            ],
            [
              85.8004289,
              20.2484321
            ],
            [
              85.8004584,
              20.2483868
            ],
            [
              85.8004262,
              20.2483692
            ],
            [
              85.800437,
              20.248339
            ],
            [
              85.8003806,
              20.2483239
            ],
            [
              85.8004799,
              20.2481729
            ],
            [
              85.8004879,
              20.2480144
            ],
            [
              85.8002921,
              20.2479087
            ],
            [
              85.8001285,
              20.2482635
            ],
            [
              85.8001768,
              20.2482912
            ],
            [
              85.8000722,
              20.2484406
            ]
          ]
        ]
      }
    },
    {
      "type": "Feature",
      "properties": {
        "osm_id": 1523367317,
        "name": "ITER Boys Hostel 7",
        "building_type": "dormitory",
        "amenity": null,
        "levels": 6,
        "footprint_m2": 1486.6,
        "gross_floor_area_m2": 8919.7
      },
      "geometry": {
        "type": "Polygon",
        "coordinates": [
          [
            [
              85.8002212,
              20.2506228
            ],
            [
              85.8005105,
              20.2506242
            ],
            [
              85.8005095,
              20.2501821
            ],
            [
              85.8002172,
              20.2501835
            ],
            [
              85.8002212,
              20.2506228
            ]
          ]
        ]
      }
    },
    {
      "type": "Feature",
      "properties": {
        "osm_id": 1523416738,
        "name": "S-Block (Sports Complex)",
        "building_type": "college",
        "amenity": null,
        "levels": 1,
        "footprint_m2": 1384.6,
        "gross_floor_area_m2": 1384.6
      },
      "geometry": {
        "type": "Polygon",
        "coordinates": [
          [
            [
              85.8014637,
              20.2482
            ],
            [
              85.8010261,
              20.2482929
            ],
            [
              85.8010733,
              20.24855
            ],
            [
              85.8015213,
              20.2484604
            ],
            [
              85.8014637,
              20.2482
            ]
          ]
        ]
      }
    },
    {
      "type": "Feature",
      "properties": {
        "osm_id": 1523416739,
        "name": "G-Block",
        "building_type": "college",
        "amenity": null,
        "levels": 1,
        "footprint_m2": 424.5,
        "gross_floor_area_m2": 424.5
      },
      "geometry": {
        "type": "Polygon",
        "coordinates": [
          [
            [
              85.8019862,
              20.2481514
            ],
            [
              85.8016475,
              20.248194
            ],
            [
              85.8016627,
              20.2482999
            ],
            [
              85.8020024,
              20.2482573
            ],
            [
              85.8019862,
              20.2481514
            ]
          ]
        ]
      }
    },
    {
      "type": "Feature",
      "properties": {
        "osm_id": 1523416740,
        "name": "F-Block",
        "building_type": "college",
        "amenity": null,
        "levels": 1,
        "footprint_m2": 1252.1,
        "gross_floor_area_m2": 1252.1
      },
      "geometry": {
        "type": "Polygon",
        "coordinates": [
          [
            [
              85.8016627,
              20.2483358
            ],
            [
              85.8016959,
              20.2486082
            ],
            [
              85.80208,
              20.2485666
            ],
            [
              85.8020447,
              20.2482838
            ],
            [
              85.8016627,
              20.2483358
            ]
          ]
        ]
      }
    },
    {
      "type": "Feature",
      "properties": {
        "osm_id": 1523427652,
        "name": "Centre for Data Science",
        "building_type": "college",
        "amenity": null,
        "levels": 1,
        "footprint_m2": 454.5,
        "gross_floor_area_m2": 454.5
      },
      "geometry": {
        "type": "Polygon",
        "coordinates": [
          [
            [
              85.8012657,
              20.2493969
            ],
            [
              85.8012864,
              20.2493724
            ],
            [
              85.8014849,
              20.2493584
            ],
            [
              85.801508,
              20.2493779
            ],
            [
              85.8015194,
              20.2495212
            ],
            [
              85.8012788,
              20.2495361
            ],
            [
              85.8012657,
              20.2493969
            ]
          ]
        ]
      }
    }
  ]
}